[{"OBJECT_NAME":"KUIPER-00027","OBJECT_ID":"2025-088S","EPOCH":"2026-03-09T19:05:26.143008","MEAN_MOTION":14.79893472,"ECCENTRICITY":6.658e-5,"INCLINATION":51.9017,"RA_OF_ASC_NODE":95.1167,"ARG_OF_PERICENTER":87.7489,"MEAN_ANOMALY":272.355,"EPHEMERIS_TYPE":0,"CLASSIFICATION_TYPE":"U","NORAD_CAT_ID":63740,"ELEMENT_SET_NO":999,"REV_AT_EPOCH":4763,"BSTAR":-0.00034211181,"MEAN_MOTION_DOT":-2.826e-5,"MEAN_MOTION_DDOT":0},{"OBJECT_NAME":"CZ-6A DEB","OBJECT_ID":"2022-151WF","EPOCH":"2026-03-09T14:53:51.510048","MEAN_MOTION":14.70635082,"ECCENTRICITY":0.0104309,"INCLINATION":98.441,"RA_OF_ASC_NODE":113.6179,"ARG_OF_PERICENTER":171.4887,"MEAN_ANOMALY":188.8119,"EPHEMERIS_TYPE":0,"CLASSIFICATION_TYPE":"U","NORAD_CAT_ID":55214,"ELEMENT_SET_NO":999,"REV_AT_EPOCH":17090,"BSTAR":0.0014323,"MEAN_MOTION_DOT":9.434e-5,"MEAN_MOTION_DDOT":0}]
